ONEWEB-0570             
1 55149U 23004K   23299.66667824 -.01000297  00000+0 -96193+0 0  9990
2 55149  87.3664 168.3640 0002390  56.0644 149.8730 13.83445775 42462
ONEWEB-0571             
1 55150U 23004L   23299.66667824 -.01010672  00000+0 -94420+0 0  9991
2 55150  87.3617 168.3824 0001961  26.7037 140.8493 13.85182614 42479
ONEWEB-0572             
1 55151U 23004M   23299.74961381  .00000086  00000+0  18942-3 0  9990
2 55151  87.9260 197.5434 0001704  90.4647 269.6680 13.17648262 40478
ONEWEB-0573             
1 55152U 23004N   23299.66667824 -.01030838  00000+0 -97236+0 0  9997
2 55152  87.3688 168.4013 0003016   8.0776 118.3683 13.84681973 42467
ONEWEB-0588             
1 55153U 23004P   23299.66667824 -.00985880  00000+0 -92296+0 0  9994
2 55153  87.3516 168.3844 0004714 344.4497  28.7450 13.84974237 42466
ONEWEB-0598             
1 55154U 23004Q   23300.14959601 -.00000646  00000+0 -18593-2 0  9997
2 55154  87.8992 212.6241 0000972  62.0399 298.0827 13.11419066 39550
ONEWEB-0599             
1 55155U 23004R   23300.16727494  .00000113  00000+0  25898-3 0  9997
2 55155  87.9257 197.4351 0001772  71.0179 289.1145 13.17653609 40536
ONEWEB-0614             
1 55156U 23004S   23300.14475464  .00000740  00000+0  20512-2 0  9996
2 55156  87.9021 212.6115 0002182  83.8261 276.3116 13.11415372 39501
